IRIDIUM 921             
1 24873U 97034E   24223.59596039  .00050542  00000+0  11243-2 0  9994
2 24873  86.3757 261.0900 0005122  74.4860 285.6961 15.43438319483563
IRIDIUM 26              
1 24903U 97043A   24223.59466261  .00001061  00000+0  35541-3 0  9991
2 24903  86.3922 240.9195 0002450  87.0980 273.0498 14.36474193412140
IRIDIUM 22              
1 24907U 97043E   24223.55304430  .00000980  00000+0  33501-3 0  9993
2 24907  86.3924 244.2175 0002258  91.3320 268.8135 14.35359044412206
DUMMY MASS 1            
1 24925U 97048A   24223.59285365  .00001065  00000+0  11780-3 0  9997
2 24925  86.3321 278.8488 0007698 150.1112 210.0554 14.86329034458984
DUMMY MASS 2            
1 24926U 97048B   24223.57100471  .00001064  00000+0  11831-3 0  9996
2 24926  86.3323 280.4122 0008043 161.6959 198.4557 14.86086403458760
IRIDIUM 29              
1 24944U 97051A   24223.60854345  .00000958  00000+0  32435-3 0  9994
2 24944  86.3923 274.0858 0002234  99.1119 261.0331 14.35813059408693
IRIDIUM 33              
1 24946U 97051C   24223.61697519  .00000650  00000+0  22382-3 0  9994
2 24946  86.3838 273.3302 0008593  27.1629 333.0014 14.34444804408210
IRIDIUM 28              
1 24948U 97051E   24223.57631872  .00000972  00000+0  32308-3 0  9997
2 24948  86.3927 271.7900 0002462  83.0221 277.1256 14.36768681409238
